51645,ONEWEB-0455,2022,101.21,148.0,-,87.53,Inactive,1,LEO,French Guiana,UK,Commercial,Communications,Soyuz,1 51645U 22012Z   24105.18036618  .00000369  00000+0  15640-3 0  9999,2 51645  87.5296 136.0121 0016631 187.5581 172.5362 14.22780054114483,14.22780054,0.0016631,LEO
51638,ONEWEB-0444,2022,109.89,148.0,+,87.9,Active,1,LEO,French Guiana,UK,Commercial,Communications,Soyuz,1 51638U 22012S   24105.28343876 -.00000405  00000+0 -11959-2 0  9990,2 51638  87.8997 194.0517 0001699 101.2289 258.9029 13.10372972106656,13.10372972,0.0001699,LEO
51639,ONEWEB-0445,2022,109.89,148.0,+,87.9,Active,1,LEO,French Guiana,UK,Commercial,Communications,Soyuz,1 51639U 22012T   24104.77051211  .00000648  00000+0  18187-2 0  9990,2 51639  87.8991 194.1277 0002289 102.4022 257.7362 13.10374466105307,13.10374466,0.0002289,LEO
51640,ONEWEB-0446,2022,109.9,148.0,+,87.9,Active,1,LEO,French Guiana,UK,Commercial,Communications,Soyuz,1 51640U 22012U   24105.28178511 -.00000449  00000+0 -13220-2 0  9996,2 51640  87.9001 194.0452 0002342 105.4115 254.7271 13.10373882106658,13.10373882,0.0002342,LEO
51641,ONEWEB-0448,2022,109.89,148.0,+,87.9,Active,1,LEO,French Guiana,UK,Commercial,Communications,Soyuz,1 51641U 22012V   24105.28672343 -.00005674  00000+0 -16294-1 0  9997,2 51641  87.8999 194.0445 0001904  90.3869 269.7477 13.10401148106614,13.10401148,0.0001904,LEO
51642,ONEWEB-0449,2022,109.89,148.0,+,87.9,Active,1,LEO,French Guiana,UK,Commercial,Communications,Soyuz,1 51642U 22012W   24104.75722793  .00000051  00000+0  11074-3 0  9999,2 51642  87.8998 194.1485 0002037  94.7514 265.3846 13.10374243105269,13.10374243,0.0002037,LEO
51643,ONEWEB-0451,2022,109.29,148.0,+,87.92,Active,1,LEO,French Guiana,UK,Commercial,Communications,Soyuz,1 51643U 22012X   24104.68817259  .00000049  00000+0  93393-4 0  9996,2 51643  87.9215 163.9531 0001884  95.7924 264.3423 13.17647501109030,13.17647501,0.0001884,LEO
51644,ONEWEB-0452,2022,109.29,148.0,+,87.92,Active,1,LEO,French Guiana,UK,Commercial,Communications,Soyuz,1 51644U 22012Y   24104.68659967  .00000070  00000+0  14701-3 0  9996,2 51644  87.9222 163.9894 0001985  87.9495 272.1864 13.17649545109046,13.17649545,0.0001985,LEO
